[{"OBJECT_NAME":"ONEWEB-0395","OBJECT_ID":"2021-132G","EPOCH":"2026-03-09T23:33:00.857952","MEAN_MOTION":13.11413147,"ECCENTRICITY":0.00019334,"INCLINATION":87.886,"RA_OF_ASC_NODE":40.7967,"ARG_OF_PERICENTER":78.3949,"MEAN_ANOMALY":281.7396,"EPHEMERIS_TYPE":0,"CLASSIFICATION_TYPE":"U","NORAD_CAT_ID":50475,"ELEMENT_SET_NO":999,"REV_AT_EPOCH":20271,"BSTAR":0.0027327331,"MEAN_MOTION_DOT":9.81e-6,"MEAN_MOTION_DDOT":0},{"OBJECT_NAME":"UNKNOWN","OBJECT_ID":"","EPOCH":"2026-03-06T03:14:31.265376","MEAN_MOTION":12.81426946,"ECCENTRICITY":0.0149171,"INCLINATION":56.4354,"RA_OF_ASC_NODE":337.3034,"ARG_OF_PERICENTER":254.5569,"MEAN_ANOMALY":103.8838,"EPHEMERIS_TYPE":0,"CLASSIFICATION_TYPE":"U","NORAD_CAT_ID":81605,"ELEMENT_SET_NO":999,"REV_AT_EPOCH":19689,"BSTAR":-0.006199,"MEAN_MOTION_DOT":-1.613e-5,"MEAN_MOTION_DDOT":0}]
